IRIDIUM 155             
1 43573U 18061E   23189.32706470  .00000119  00000+0  35534-4 0  9994
2 43573  86.3991 145.9292 0002130  83.6481 276.4958 14.34217515259301
IRIDIUM 154             
1 43574U 18061F   23188.40103769  .00000334  00000+0  11210-3 0  9998
2 43574  86.3994 146.3970 0002549  83.1563 276.9923 14.34221787259216
IRIDIUM 163             
1 43575U 18061G   23188.73086578  .00000332  00000+0  11154-3 0  9998
2 43575  86.3992 146.2080 0002432  86.6825 273.4649 14.34217620259236
IRIDIUM 156             
1 43576U 18061H   23189.33341696  .00000344  00000+0  11587-3 0  9994
2 43576  86.3992 145.9622 0002088  90.5816 269.5619 14.34217214259306
IRIDIUM 164             
1 43577U 18061J   23188.40739672  .00000335  00000+0  11262-3 0  9997
2 43577  86.3993 146.3726 0002445  89.5478 270.5998 14.34217561259225
IRIDIUM 159             
1 43578U 18061K   23189.35243728  .00000029  00000+0  31949-5 0  9991
2 43578  86.3991 145.9377 0002377  84.0997 276.0470 14.34217058259329
IRIDIUM 180             
1 43922U 19002A   23189.21239446  .00000306  00000+0  10227-3 0  9999
2 43922  86.3957  82.8761 0002388  85.2751 274.8718 14.34219953234952
IRIDIUM 176             
1 43923U 19002B   23189.18173491  .00001090  00000+0  16900-3 0  9998
2 43923  86.6088  82.9271 0002403  88.2227 271.9266 14.72261060241083
IRIDIUM 168             
1 43924U 19002C   23188.78743443  .00000317  00000+0  10623-3 0  9991
2 43924  86.3960  83.1008 0002363  83.4601 276.6863 14.34221176234831
IRIDIUM 173             
1 43925U 19002D   23188.70498729  .00000330  00000+0  11080-3 0  9991
2 43925  86.3956  83.0681 0002369  82.1145 278.0319 14.34218434234811
IRIDIUM 169             
1 43926U 19002E   23188.29400435  .00000439  00000+0  13686-3 0  9997
2 43926  86.4232 114.8618 0001736 322.3852  37.7224 14.38616321235541
IRIDIUM 172             
1 43927U 19002F   23188.69864627  .00000303  00000+0  10099-3 0  9994
2 43927  86.3956  83.0754 0002267  82.7841 277.3612 14.34216352234815
IRIDIUM 175             
1 43928U 19002G   23188.97152311  .00000191  00000+0  26345-4 0  9993
2 43928  86.1503  75.6593 0002453  84.8514 275.2983 14.72249043241043
IRIDIUM 171             
1 43929U 19002H   23189.23777890  .00000308  00000+0  10301-3 0  9993
2 43929  86.3966  83.0372 0002389  84.4121 275.7347 14.34218640234885
IRIDIUM 170             
1 43930U 19002J   23188.71212165  .00001078  00000+0  16699-3 0  9997
2 43930  86.6089  83.1283 0002537  90.8153 269.3355 14.72263100241024
IRIDIUM 167             
1 43931U 19002K   23189.23142233  .00000341  00000+0  11469-3 0  9996
2 43931  86.3957  82.8655 0002379  85.7211 274.4256 14.34218380234888
IRIDIUM 181             
1 56726U 23068S   23189.32721312  .00001609  00000+0  20822-3 0  9991
2 56726  86.6777 120.0992 0003171  88.8293 271.3292 14.80248819  7369
IRIDIUM 177             
1 56727U 23068T   23189.05130967  .00001612  00000+0  20870-3 0  9999
2 56727  86.1987 119.2312 0003243  94.9902 265.1689 14.80231181  7320
IRIDIUM 174             
1 56728U 23068U   23189.31633349  .00001655  00000+0  21435-3 0  9996
2 56728  86.1995 119.1810 0002867  92.0444 268.1105 14.80234522  7365
IRIDIUM 178             
1 56729U 23068V   23188.56734289  .00001583  00000+0  20492-3 0  9990
2 56729  86.6766 120.3912 0002890  93.7371 266.4181 14.80239462  7258
IRIDIUM 179             
1 56730U 23068W   23189.30549516  .00001617  00000+0  20939-3 0  9996
2 56730  86.6805 120.1039 0002932  94.8621 265.2935 14.80225305  7366
